GLOBALSTAR M024         
1 25883U 99043A   25060.87941803 -.00000128  00000+0 -22430-2 0  9999
2 25883  51.9989 262.7502 0000586 297.0099 166.4019 11.10163943102940
GLOBALSTAR M027         
1 25884U 99043B   25060.87673886 -.00000086  00000+0 -85998-3 0  9995
2 25884  52.0255 337.6960 0021126 177.1019 182.9899 11.04371054129385
GLOBALSTAR M054         
1 25885U 99043C   25060.57492866 -.00000139  00000+0 -17208-2 0  9997
2 25885  52.0125 123.7257 0005514 352.5463 153.7565 11.39213381107119
GLOBALSTAR M053         
1 25886U 99043D   25061.17646403 -.00000076  00000+0 -22157-3 0  9993
2 25886  51.9985  63.4389 0003339 256.6637 187.9399 11.27663366107515
GLOBALSTAR M033         
1 25909U 99049C   25060.80278733 -.00000118  00000+0 -25523-3 0  9998
2 25909  51.9913 290.8690 0014051  44.8167 315.3813 12.20286963522631
GLOBALSTAR M055         
1 25910U 99049D   25060.85875432 -.00000036  00000+0  49423-3 0  9997
2 25910  52.0031 306.6856 0006259 271.0601  88.9534 12.29422143155089
